{
    "links": {
        "self": "http://www.neowsapp.com/rest/v1/neo/3435084?api_key=iIulBulltgU6a56xZRHN4H3l9WmuAYTsLGpBGhQ2"
    },
    "id": "3435084",
    "neo_reference_id": "3435084",
    "name": "(2008 UP100)",
    "designation": "2008 UP100",
    "nasa_jpl_url": "http://ssd.jpl.nasa.gov/sbdb.cgi?sstr=3435084",
    "absolute_magnitude_h": 23.9,
    "estimated_diameter": {
        "kilometers": {
            "estimated_diameter_min": 0.04411182,
            "estimated_diameter_max": 0.0986370281
        },
        "meters": {
            "estimated_diameter_min": 44.1118199997,
            "estimated_diameter_max": 98.6370281305
        },
        "miles": {
            "estimated_diameter_min": 0.0274098057,
            "estimated_diameter_max": 0.0612901888
        },
        "feet": {
            "estimated_diameter_min": 144.7238235278,
            "estimated_diameter_max": 323.6123073718
        }
    },
    "is_potentially_hazardous_asteroid": false,
    "close_approach_data": [
        {
            "close_approach_date": "2006-11-22",
            "close_approach_date_full": "2006-Nov-22 03:17",
            "epoch_date_close_approach": 1164165420000,
            "relative_velocity": {
                "kilometers_per_second": "24.1556245826",
                "kilometers_per_hour": "86960.2484971836",
                "miles_per_hour": "54033.7166287083"
            },
            "miss_distance": {
                "astronomical": "0.4893954119",
                "lunar": "190.3748152291",
                "kilometers": "73212511.208012653",
                "miles": "45492144.9658664914"
            },
            "orbiting_body": "Earth"
        },
        {
            "close_approach_date": "2008-06-09",
            "close_approach_date_full": "2008-Jun-09 08:49",
            "epoch_date_close_approach": 1213001340000,
            "relative_velocity": {
                "kilometers_per_second": "5.1804354326",
                "kilometers_per_hour": "18649.5675572087",
                "miles_per_hour": "11588.1160190889"
            },
            "miss_distance": {
                "astronomical": "0.4863306167",
                "lunar": "189.1826098963",
                "kilometers": "72754024.374106429",
                "miles": "45207254.4578255602"
            },
            "orbiting_body": "Earth"
        },
        {
            "close_approach_date": "2008-10-27",
            "close_approach_date_full": "2008-Oct-27 04:28",
            "epoch_date_close_approach": 1225081680000,
            "relative_velocity": {
                "kilometers_per_second": "10.9286241824",
                "kilometers_per_hour": "39343.047056636",
                "miles_per_hour": "24446.2394336081"
            },
            "miss_distance": {
                "astronomical": "0.0549076205",
                "lunar": "21.3590643745",
                "kilometers": "8214063.073568335",
                "miles": "5103982.119119623"
            },
            "orbiting_body": "Earth"
        },
        {
            "close_approach_date": "2010-07-12",
            "close_approach_date_full": "2010-Jul-12 19:14",
            "epoch_date_close_approach": 1278962040000,
            "relative_velocity": {
                "kilometers_per_second": "8.964563361",
                "kilometers_per_hour": "32272.4280994582",
                "miles_per_hour": "20052.8317821328"
            },
            "miss_distance": {
                "astronomical": "0.0898119156",
                "lunar": "34.9368351684",
                "kilometers": "13435671.274379772",
                "miles": "8348539.0030019736"
            },
            "orbiting_body": "Earth"
        },
        {
            "close_approach_date": "2012-06-12",
            "close_approach_date_full": "2012-Jun-12 22:48",
            "epoch_date_close_approach": 1339541280000,
            "relative_velocity": {
                "kilometers_per_second": "21.3288298066",
                "kilometers_per_hour": "76783.7873036891",
                "miles_per_hour": "47710.4593943395"
            },
            "miss_distance": {
                "astronomical": "0.411299815",
                "lunar": "159.995628035",
                "kilometers": "61529576.25539405",
                "miles": "38232705.81097589"
            },
            "orbiting_body": "Earth"
        }
    ],
    "orbital_data": {
        "orbit_id": "13",
        "orbit_determination_date": "2017-04-06 09:02:20",
        "first_observation_date": "2008-10-31",
        "last_observation_date": "2008-11-17",
        "data_arc_in_days": 17,
        "observations_used": 47,
        "orbit_uncertainty": "8",
        "minimum_orbit_intersection": ".0403774",
        "jupiter_tisserand_invariant": "4.343",
        "epoch_osculation": "2454778.5",
        "eccentricity": ".4152241700933654",
        "semi_major_axis": "1.550929941096031",
        "inclination": "5.855362065738268",
        "ascending_node_longitude": "232.155177676366",
        "orbital_period": "705.483234191221",
        "perihelion_distance": ".9069463434314793",
        "perihelion_argument": "109.2379985438077",
        "aphelion_distance": "2.194913538760582",
        "perihelion_time": "2454726.507312265694",
        "mean_anomaly": "26.53127200933145",
        "mean_motion": ".5102885264349487",
        "equinox": "J2000",
        "orbit_class": {
            "orbit_class_type": "APO",
            "orbit_class_description": "Near-Earth asteroid orbits which cross the Earth’s orbit similar to that of 1862 Apollo",
            "orbit_class_range": "a (semi-major axis) > 1.0 AU; q (perihelion) < 1.017 AU"
        }
    },
    "is_sentry_object": false
}